{
  "type": "FeatureCollection",
  "features": [
    {
      "type": "Feature",
      "properties": {
        "norad_id": 30059,
        "name": "FENGYUN 1C DEB",
        "group": "fengyun-1c-debris",
        "lat": 65.17465163412278,
        "lon": -168.07429149420875,
        "alt_km": 1310.2085865100426,
        "timestamp": "2025-12-24T09:46:31.277561+00:00",
        "meta_object_name": "FENGYUN 1C DEB",
        "meta_object_id": "1999-025PL",
        "meta_epoch": "2025-12-23T22:49:30.299232",
        "meta_mean_motion": 13.45500167,
        "meta_eccentricity": 0.0326432,
        "meta_inclination": 98.8229,
        "meta_ra_of_asc_node": 351.9068,
        "meta_arg_of_pericenter": 274.1776,
        "meta_mean_anomaly": 151.521,
        "meta_ephemeris_type": 0,
        "meta_classification_type": "U",
        "meta_norad_cat_id": 30059,
        "meta_element_set_no": 999,
        "meta_rev_at_epoch": 92948,
        "meta_bstar": 0.00027443,
        "meta_mean_motion_dot": 1.85e-06,
        "meta_mean_motion_ddot": 0,
        "tle_line1": "1 30059U 99025PL  25357.95104513  .00000185  00000+0  27443-3 0  9998",
        "tle_line2": "2 30059  98.8229 351.9068 0326432 274.1776 151.5210 13.45500167929482"
      },
      "geometry": {
        "type": "Point",
        "coordinates": [
          -168.07429149420875,
          65.17465163412278
        ]
      }
    },
    {
      "type": "Feature",
      "properties": {
        "norad_id": 30060,
        "name": "FENGYUN 1C DEB",
        "group": "fengyun-1c-debris",
        "lat": -75.97695904631551,
        "lon": -94.66515730643602,
        "alt_km": 1232.9009126792553,
        "timestamp": "2025-12-24T09:46:31.277572+00:00",
        "meta_object_name": "FENGYUN 1C DEB",
        "meta_object_id": "1999-025PM",
        "meta_epoch": "2025-12-23T04:22:26.730912",
        "meta_mean_motion": 13.43797276,
        "meta_eccentricity": 0.03458075,
        "meta_inclination": 99.3149,
        "meta_ra_of_asc_node": 223.118,
        "meta_arg_of_pericenter": 45.6093,
        "meta_mean_anomaly": 74.9854,
        "meta_ephemeris_type": 0,
        "meta_classification_type": "U",
        "meta_norad_cat_id": 30060,
        "meta_element_set_no": 999,
        "meta_rev_at_epoch": 92383,
        "meta_bstar": 0.0024311461,
        "meta_mean_motion_dot": 1.968e-05,
        "meta_mean_motion_ddot": 0,
        "tle_line1": "1 30060U 99025PM  25357.18225383  .00001968  00000+0  24311-2 0  9994",
        "tle_line2": "2 30060  99.3149 223.1180 0345807  45.6093  74.9854 13.43797276923838"
      },
      "geometry": {
        "type": "Point",
        "coordinates": [
          -94.66515730643602,
          -75.97695904631551
        ]
      }
    },
    {
      "type": "Feature",
      "properties": {
        "norad_id": 30061,
        "name": "FENGYUN 1C DEB",
        "group": "fengyun-1c-debris",
        "lat": 63.71087746607019,
        "lon": 85.03932005609848,
        "alt_km": 1335.0530310155837,
        "timestamp": "2025-12-24T09:46:31.277582+00:00",
        "meta_object_name": "FENGYUN 1C DEB",
        "meta_object_id": "1999-025PN",
        "meta_epoch": "2025-12-23T21:34:47.078400",
        "meta_mean_motion": 13.46513575,
        "meta_eccentricity": 0.0373354,
        "meta_inclination": 101.8753,
        "meta_ra_of_asc_node": 109.6469,
        "meta_arg_of_pericenter": 225.2941,
        "meta_mean_anomaly": 260.7059,
        "meta_ephemeris_type": 0,
        "meta_classification_type": "U",
        "meta_norad_cat_id": 30061,
        "meta_element_set_no": 999,
        "meta_rev_at_epoch": 92249,
        "meta_bstar": 0.0037234,
        "meta_mean_motion_dot": 3.367e-05,
        "meta_mean_motion_ddot": 0,
        "tle_line1": "1 30061U 99025PN  25357.89915600  .00003367  00000+0  37234-2 0  9994",
        "tle_line2": "2 30061 101.8753 109.6469 0373354 225.2941 260.7059 13.46513575922497"
      },
      "geometry": {
        "type": "Point",
        "coordinates": [
          85.03932005609848,
          63.71087746607019
        ]
      }
    },
    {
      "type": "Feature",
      "properties": {
        "norad_id": 30062,
        "name": "FENGYUN 1C DEB",
        "group": "fengyun-1c-debris",
        "lat": 33.87952861593287,
        "lon": 1.3019015726292933,
        "alt_km": 833.3041957014684,
        "timestamp": "2025-12-24T09:46:31.277593+00:00",
        "meta_object_name": "FENGYUN 1C DEB",
        "meta_object_id": "1999-025PP",
        "meta_epoch": "2025-12-23T23:39:42.249024",
        "meta_mean_motion": 14.07126565,
        "meta_eccentricity": 0.0049063,
        "meta_inclination": 98.7805,
        "meta_ra_of_asc_node": 6.8494,
        "meta_arg_of_pericenter": 16.8736,
        "meta_mean_anomaly": 43.8894,
        "meta_ephemeris_type": 0,
        "meta_classification_type": "U",
        "meta_norad_cat_id": 30062,
        "meta_element_set_no": 999,
        "meta_rev_at_epoch": 97066,
        "meta_bstar": 0.00039297,
        "meta_mean_motion_dot": 6.22e-06,
        "meta_mean_motion_ddot": 0,
        "tle_line1": "1 30062U 99025PP  25357.98590566  .00000622  00000+0  39297-3 0  9998",
        "tle_line2": "2 30062  98.7805   6.8494 0049063  16.8736  43.8894 14.07126565970665"
      },
      "geometry": {
        "type": "Point",
        "coordinates": [
          1.3019015726292933,
          33.87952861593287
        ]
      }
    },
    {
      "type": "Feature",
      "properties": {
        "norad_id": 30063,
        "name": "FENGYUN 1C DEB",
        "group": "fengyun-1c-debris",
        "lat": 41.82768527147033,
        "lon": -31.00264202262448,
        "alt_km": 824.3753513051515,
        "timestamp": "2025-12-24T09:46:31.277603+00:00",
        "meta_object_name": "FENGYUN 1C DEB",
        "meta_object_id": "1999-025PQ",
        "meta_epoch": "2025-12-23T18:52:18.080832",
        "meta_mean_motion": 14.15615102,
        "meta_eccentricity": 0.00333263,
        "meta_inclination": 98.5226,
        "meta_ra_of_asc_node": 336.116,
        "meta_arg_of_pericenter": 103.3682,
        "meta_mean_anomaly": 16.5507,
        "meta_ephemeris_type": 0,
        "meta_classification_type": "U",
        "meta_norad_cat_id": 30063,
        "meta_element_set_no": 999,
        "meta_rev_at_epoch": 97821,
        "meta_bstar": 7.7746709e-05,
        "meta_mean_motion_dot": 1.12e-06,
        "meta_mean_motion_ddot": 0,
        "tle_line1": "1 30063U 99025PQ  25357.78632038  .00000112  00000+0  77747-4 0  9995",
        "tle_line2": "2 30063  98.5226 336.1160 0033326 103.3682  16.5507 14.15615102978213"
      },
      "geometry": {
        "type": "Point",
        "coordinates": [
          -31.00264202262448,
          41.82768527147033
        ]
      }
    },
    {
      "type": "Feature",
      "properties": {
        "norad_id": 30064,
        "name": "FENGYUN 1C DEB",
        "group": "fengyun-1c-debris",
        "lat": 66.28647545222215,
        "lon": -150.59147561175456,
        "alt_km": 798.0429364174533,
        "timestamp": "2025-12-24T09:46:31.277614+00:00",
        "meta_object_name": "FENGYUN 1C DEB",
        "meta_object_id": "1999-025PR",
        "meta_epoch": "2025-12-24T01:04:13.708704",
        "meta_mean_motion": 14.14276918,
        "meta_eccentricity": 0.0066677,
        "meta_inclination": 98.6613,
        "meta_ra_of_asc_node": 8.752,
        "meta_arg_of_pericenter": 79.5911,
        "meta_mean_anomaly": 346.4764,
        "meta_ephemeris_type": 0,
        "meta_classification_type": "U",
        "meta_norad_cat_id": 30064,
        "meta_element_set_no": 999,
        "meta_rev_at_epoch": 97665,
        "meta_bstar": 0.0001569,
        "meta_mean_motion_dot": 2.64e-06,
        "meta_mean_motion_ddot": 0,
        "tle_line1": "1 30064U 99025PR  25358.04460311  .00000264  00000+0  15690-3 0  9995",
        "tle_line2": "2 30064  98.6613   8.7520 0066677  79.5911 346.4764 14.14276918976654"
      },
      "geometry": {
        "type": "Point",
        "coordinates": [
          -150.59147561175456,
          66.28647545222215
        ]
      }
    },
    {
      "type": "Feature",
      "properties": {
        "norad_id": 30065,
        "name": "FENGYUN 1C DEB",
        "group": "fengyun-1c-debris",
        "lat": 0.03394554118398427,
        "lon": -29.595273470184996,
        "alt_km": 846.2726522691491,
        "timestamp": "2025-12-24T09:46:31.277624+00:00",
        "meta_object_name": "FENGYUN 1C DEB",
        "meta_object_id": "1999-025PS",
        "meta_epoch": "2025-12-23T11:16:02.379936",
        "meta_mean_motion": 13.86920283,
        "meta_eccentricity": 0.01312161,
        "meta_inclination": 98.6856,
        "meta_ra_of_asc_node": 329.5385,
        "meta_arg_of_pericenter": 2.4191,
        "meta_mean_anomaly": 357.7574,
        "meta_ephemeris_type": 0,
        "meta_classification_type": "U",
        "meta_norad_cat_id": 30065,
        "meta_element_set_no": 999,
        "meta_rev_at_epoch": 95820,
        "meta_bstar": 0.00016321993,
        "meta_mean_motion_dot": 1.64e-06,
        "meta_mean_motion_ddot": 0,
        "tle_line1": "1 30065U 99025PS  25357.46947199  .00000164  00000+0  16322-3 0  9997",
        "tle_line2": "2 30065  98.6856 329.5385 0131216   2.4191 357.7574 13.86920283958208"
      },
      "geometry": {
        "type": "Point",
        "coordinates": [
          -29.595273470184996,
          0.03394554118398427
        ]
      }
    }
  ]
}